[{"OBJECT_NAME":"STARLINK-30906","OBJECT_ID":"2023-180G","EPOCH":"2026-03-09T22:00:01.999584","MEAN_MOTION":15.21060348,"ECCENTRICITY":0.00022028,"INCLINATION":43.0002,"RA_OF_ASC_NODE":54.5612,"ARG_OF_PERICENTER":248.9497,"MEAN_ANOMALY":340.58,"EPHEMERIS_TYPE":0,"CLASSIFICATION_TYPE":"U","NORAD_CAT_ID":58408,"ELEMENT_SET_NO":999,"REV_AT_EPOCH":547,"BSTAR":0.088056699,"MEAN_MOTION_DOT":0.0219786,"MEAN_MOTION_DDOT":0},{"OBJECT_NAME":"FLOCK 4G-27","OBJECT_ID":"2025-009AJ","EPOCH":"2026-03-09T18:05:51.175392","MEAN_MOTION":15.27199247,"ECCENTRICITY":7.564e-5,"INCLINATION":97.3976,"RA_OF_ASC_NODE":150.8631,"ARG_OF_PERICENTER":322.4974,"MEAN_ANOMALY":37.6212,"EPHEMERIS_TYPE":0,"CLASSIFICATION_TYPE":"U","NORAD_CAT_ID":62641,"ELEMENT_SET_NO":999,"REV_AT_EPOCH":6371,"BSTAR":0.00047455305,"MEAN_MOTION_DOT":0.00012587,"MEAN_MOTION_DDOT":0}]
